[{"OBJECT_NAME":"STARLINK-34263","OBJECT_ID":"2025-112U","EPOCH":"2026-03-09T17:34:55.064064","MEAN_MOTION":15.05646504,"ECCENTRICITY":0.00022208,"INCLINATION":97.6018,"RA_OF_ASC_NODE":121.5486,"ARG_OF_PERICENTER":125.0748,"MEAN_ANOMALY":235.0687,"EPHEMERIS_TYPE":0,"CLASSIFICATION_TYPE":"U","NORAD_CAT_ID":64164,"ELEMENT_SET_NO":999,"REV_AT_EPOCH":4331,"BSTAR":0.00022642075,"MEAN_MOTION_DOT":3.208e-5,"MEAN_MOTION_DDOT":0},{"OBJECT_NAME":"PEGASUS DEB","OBJECT_ID":"1994-029AFH","EPOCH":"2026-03-05T17:45:37.026432","MEAN_MOTION":14.51722311,"ECCENTRICITY":0.02342531,"INCLINATION":81.9261,"RA_OF_ASC_NODE":220.9081,"ARG_OF_PERICENTER":300.5844,"MEAN_ANOMALY":57.2427,"EPHEMERIS_TYPE":0,"CLASSIFICATION_TYPE":"U","NORAD_CAT_ID":39322,"ELEMENT_SET_NO":999,"REV_AT_EPOCH":66781,"BSTAR":0.00070242434,"MEAN_MOTION_DOT":4.058e-5,"MEAN_MOTION_DDOT":0}]
